NORAD_CAT_ID,OBJECT_NAME,OBJECT_TYPE,EPOCH,MEAN_MOTION,ECCENTRICITY,INCLINATION,RA_OF_ASC_NODE,ARG_OF_PERICENTER,MEAN_ANOMALY,BSTAR,MEAN_MOTION_DOT,MEAN_MOTION_DDOT,TLE_LINE0,TLE_LINE1,TLE_LINE2,SEMIMAJOR_AXIS,PERIOD,APOGEE,PERIGEE,DECAYED
55762.0,STARLINK-5603,PAYLOAD,2024-05-23 04:40:41,14.98324694,0.0002358,70.0017,77.3055,244.6095,115.482,2.6588e-05,2.24e-06,0.0,0 STARLINK-5603,1 55762U 23028X   24144.19492833  .00000224  00000-0  26588-4 0  9995,2 55762  70.0017  77.3055 0002358 244.6095 115.4820 14.98324694 68349,6950.209,96.107,573.713,570.435,0.0
55762.0,STARLINK-5603,PAYLOAD,2024-05-23 20:42:01,14.98337808,0.0002464,70.0017,75.6227,244.5495,115.5409,-5.8078e-06,-1.62e-06,0.0,0 STARLINK-5603,1 55762U 23028X   24144.86251921 -.00000162  00000-0 -58078-5 0  9993,2 55762  70.0017  75.6227 0002464 244.5495 115.5409 14.98337808 68448,6950.169,96.106,573.746,570.321,0.0
55762.0,STARLINK-5603,PAYLOAD,2024-05-24 04:42:41,14.98341204,0.0002741,70.0004,74.7794,263.6845,96.4002,1.4454e-05,8e-07,0.0,0 STARLINK-5603,1 55762U 23028X   24145.19631540  .00000080  00000-0  14454-4 0  9995,2 55762  70.0004  74.7794 0002741 263.6845  96.4002 14.98341204 68498,6950.158,96.106,573.928,570.118,0.0
55762.0,STARLINK-5603,PAYLOAD,2024-05-24 20:44:03,14.98324786,0.0002815,70.0014,73.0987,263.0437,97.0402,-4.6895e-05,-6.52e-06,0.0,0 STARLINK-5603,1 55762U 23028X   24145.86392635 -.00000652  00000-0 -46895-4 0  9999,2 55762  70.0014  73.0987 0002815 263.0437  97.0402 14.98324786 68596,6950.209,96.107,574.03,570.118,0.0
55762.0,STARLINK-5603,PAYLOAD,2024-05-24 22:20:11,14.98324144,0.0002753,70.0015,72.9309,259.6786,100.4063,-4.6736e-05,-6.5e-06,0.0,0 STARLINK-5603,1 55762U 23028X   24145.93068691 -.00000650  00000-0 -46736-4 0  9991,2 55762  70.0015  72.9309 0002753 259.6786 100.4063 14.98324144 68604,6950.211,96.107,573.989,570.163,0.0
55762.0,STARLINK-5603,PAYLOAD,2024-05-25 12:45:24,14.98316829,0.0002878,70.0007,71.4129,254.8516,105.2325,7.7782e-05,8.35e-06,0.0,0 STARLINK-5603,1 55762U 23028X   24146.53152957  .00000835  00000-0  77782-4 0  9995,2 55762  70.0007  71.4129 0002878 254.8516 105.2325 14.98316829 68699,6950.234,96.108,574.099,570.098,0.0
55762.0,STARLINK-5603,PAYLOAD,2024-05-26 04:46:44,14.98329863,0.000273,70.001,69.7307,261.7732,98.3118,-3.6735e-05,-5.31e-06,0.0,0 STARLINK-5603,1 55762U 23028X   24147.19912579 -.00000531  00000-0 -36735-4 0  9990,2 55762  70.0010  69.7307 0002730 261.7732  98.3118 14.98329863 68790,6950.193,96.107,573.956,570.161,0.0
55762.0,STARLINK-5603,PAYLOAD,2024-05-26 22:24:12,14.98331443,0.0002939,70.0007,67.8773,269.794,90.2882,7.3781e-05,7.87e-06,0.0,0 STARLINK-5603,1 55762U 23028X   24147.93348090  .00000787  00000-0  73781-4 0  9996,2 55762  70.0007  67.8773 0002939 269.7940  90.2882 14.98331443 68901,6950.188,96.107,574.096,570.011,0.0
55762.0,STARLINK-5603,PAYLOAD,2024-05-27 04:48:44,14.9833138,0.0003078,70.0005,67.2045,270.5931,89.4875,0.00015293,1.732e-05,0.0,0 STARLINK-5603,1 55762U 23028X   24148.20051853  .00001732  00000-0  15293-3 0  9999,2 55762  70.0005  67.2045 0003078 270.5931  89.4875 14.98331380 68946,6950.189,96.107,574.193,569.914,0.0
55762.0,STARLINK-5603,PAYLOAD,2024-05-27 22:26:13,14.98329044,0.0002788,70.001,65.3541,259.8927,100.1917,2.0141e-05,1.47e-06,0.0,0 STARLINK-5603,1 55762U 23028X   24148.93488290  .00000147  00000-0  20141-4 0  9996,2 55762  70.0010  65.3541 0002788 259.8927 100.1917 14.98329044 69059,6950.196,96.107,573.999,570.123,0.0
55762.0,STARLINK-5603,PAYLOAD,2024-05-28 04:50:45,14.98334103,0.0003023,70.0,64.6798,271.4386,88.6426,6.713e-05,7.08e-06,0.0,0 STARLINK-5603,1 55762U 23028X   24149.20191855  .00000708  00000-0  67130-4 0  9997,2 55762  70.0000  64.6798 0003023 271.4386  88.6426 14.98334103 69097,6950.18,96.107,574.146,569.944,0.0
55762.0,STARLINK-5603,PAYLOAD,2024-05-28 11:15:18,14.9832585,0.0002909,70.0001,64.0061,274.0649,86.0177,-0.00010242,-1.315e-05,0.0,0 STARLINK-5603,1 55762U 23028X   24149.46896739 -.00001315  00000-0 -10242-3 0  9996,2 55762  70.0001  64.0061 0002909 274.0649  86.0177 14.98325850 69137,6950.206,96.107,574.093,570.049,0.0
55762.0,STARLINK-5603,PAYLOAD,2024-05-28 22:28:14,14.98331803,0.0002974,70.0,62.8277,272.1163,87.9655,-5.8698e-05,-7.93e-06,0.0,0 STARLINK-5603,1 55762U 23028X   24149.93628217 -.00000793  00000-0 -58698-4 0  9999,2 55762  70.0000  62.8277 0002974 272.1163  87.9655 14.98331803 69207,6950.187,96.107,574.119,569.985,0.0
55762.0,STARLINK-5603,PAYLOAD,2024-05-29 04:52:46,14.98336154,0.0002951,69.9999,62.1547,272.2511,87.831,-8.5053e-06,-1.94e-06,0.0,0 STARLINK-5603,1 55762U 23028X   24150.20331739 -.00000194  00000-0 -85053-5 0  9992,2 55762  69.9999  62.1547 0002951 272.2511  87.8310 14.98336154 69242,6950.174,96.107,574.09,569.988,0.0
55762.0,STARLINK-5603,PAYLOAD,2024-05-29 11:17:19,14.98326509,0.0002865,69.9999,61.4817,273.5121,86.5711,-6.141e-05,-8.26e-06,0.0,0 STARLINK-5603,1 55762U 23028X   24150.47036407 -.00000826  00000-0 -61410-4 0  9997,2 55762  69.9999  61.4817 0002865 273.5121  86.5711 14.98326509 69287,6950.204,96.107,574.06,570.077,0.0
55762.0,STARLINK-5603,PAYLOAD,2024-05-29 22:30:15,14.98330417,0.0003039,69.9998,60.303,269.0979,90.9832,-2.8918e-05,-4.38e-06,0.0,0 STARLINK-5603,1 55762U 23028X   24150.93768014 -.00000438  00000-0 -28918-4 0  9999,2 55762  69.9998  60.3030 0003039 269.0979  90.9832 14.98330417 69350,6950.192,96.107,574.169,569.944,0.0
55762.0,STARLINK-5603,PAYLOAD,2024-05-30 04:54:47,14.98337915,0.0002992,69.9998,59.6297,270.2764,89.8052,5.2786e-05,5.37e-06,0.0,0 STARLINK-5603,1 55762U 23028X   24151.20471244  .00000537  00000-0  52786-4 0  9994,2 55762  69.9998  59.6297 0002992 270.2764  89.8052 14.98337915 69394,6950.168,96.106,574.113,569.954,0.0
55762.0,STARLINK-5603,PAYLOAD,2024-05-30 08:07:03,14.98339646,0.0003028,70.0,59.2934,270.5968,89.4844,-5.5755e-06,-1.6e-06,0.0,0 STARLINK-5603,1 55762U 23028X   24151.33823221 -.00000160  00000-0 -55755-5 0  9998,2 55762  70.0000  59.2934 0003028 270.5968  89.4844 14.98339646 69416,6950.163,96.106,574.133,569.924,0.0
55762.0,STARLINK-5603,PAYLOAD,2024-05-30 20:56:08,14.98325297,0.0002929,70.0,57.9464,269.1736,90.9087,2.0311e-05,1.49e-06,0.0,0 STARLINK-5603,1 55762U 23028X   24151.87232063  .00000149  00000-0  20311-4 0  9999,2 55762  70.0000  57.9464 0002929 269.1736  90.9087 14.98325297 69496,6950.207,96.107,574.108,570.037,0.0
55762.0,STARLINK-5603,PAYLOAD,2024-05-30 22:32:16,14.98326264,0.0002908,70.0001,57.7782,268.7789,91.3037,9.5217e-07,-8.2e-07,0.0,0 STARLINK-5603,1 55762U 23028X   24151.93908063 -.00000082  00000-0  95217-6 0  9992,2 55762  70.0001  57.7782 0002908 268.7789  91.3037 14.98326264 69505,6950.204,96.107,574.091,570.048,0.0
55762.0,STARLINK-5603,PAYLOAD,2024-05-31 03:20:40,14.98334813,0.0002913,70.0001,57.2736,269.311,90.7716,-2.0048e-05,-3.32e-06,0.0,0 STARLINK-5603,1 55762U 23028X   24152.13935597 -.00000332  00000-0 -20048-4 0  9994,2 55762  70.0001  57.2736 0002913 269.3110  90.7716 14.98334813 69539,6950.178,96.107,574.068,570.018,0.0
55762.0,STARLINK-5603,PAYLOAD,2024-05-31 22:34:17,14.9832965,0.0003006,70.0,55.2534,270.4787,89.6027,1.7732e-05,1.19e-06,0.0,0 STARLINK-5603,1 55762U 23028X   24152.94047663  .00000119  00000-0  17732-4 0  9998,2 55762  70.0000  55.2534 0003006 270.4787  89.6027 14.98329650 69657,6950.194,96.107,574.148,569.97,0.0
55762.0,STARLINK-5603,PAYLOAD,2024-06-01 03:22:40,14.98336129,0.0002979,70.0001,54.7488,270.421,89.6607,2.9404e-05,2.58e-06,0.0,0 STARLINK-5603,1 55762U 23028X   24153.14075172  .00000258  00000-0  29404-4 0  9990,2 55762  70.0001  54.7488 0002979 270.4210  89.6607 14.98336129 69685,6950.174,96.107,574.109,569.968,0.0
55762.0,STARLINK-5603,PAYLOAD,2024-06-01 11:23:21,14.98332254,0.0002983,70.0,53.9072,270.7209,89.3608,-6.8456e-05,-9.1e-06,0.0,0 STARLINK-5603,1 55762U 23028X   24153.47455577 -.00000910  00000-0 -68456-4 0  9994,2 55762  70.0000  53.9072 0002983 270.7209  89.3608 14.98332254 69739,6950.186,96.107,574.124,569.978,0.0
55762.0,STARLINK-5603,PAYLOAD,2024-06-01 21:00:10,14.98324844,0.0002912,70.0006,52.8973,271.325,88.7575,-2.9063e-05,-4.4e-06,0.0,0 STARLINK-5603,1 55762U 23028X   24153.87512045 -.00000440  00000-0 -29063-4 0  9991,2 55762  70.0006  52.8973 0002912 271.3250  88.7575 14.98324844 69796,6950.209,96.107,574.098,570.05,0.0
55762.0,STARLINK-5603,PAYLOAD,2024-06-02 03:24:42,14.98326908,0.0002896,70.0011,52.2237,271.4638,88.6189,1.1776e-05,4.8e-07,0.0,0 STARLINK-5603,1 55762U 23028X   24154.14215856  .00000048  00000-0  11776-4 0  9996,2 55762  70.0011  52.2237 0002896 271.4638  88.6189 14.98326908 69839,6950.202,96.107,574.08,570.055,0.0
55762.0,STARLINK-5603,PAYLOAD,2024-06-02 16:13:46,14.98334003,0.0002812,70.0011,50.8775,273.1408,86.943,-8.2277e-05,-1.075e-05,0.0,0 STARLINK-5603,1 55762U 23028X   24154.67623683 -.00001075  00000-0 -82277-4 0  9992,2 55762  70.0011  50.8775 0002812 273.1408  86.9430 14.98334003 69916,6950.181,96.107,574.0,570.091,0.0
55762.0,STARLINK-5603,PAYLOAD,2024-06-03 03:26:43,14.98333336,0.0002886,70.0007,49.6991,270.0572,90.0257,1.7727e-05,1.19e-06,0.0,0 STARLINK-5603,1 55762U 23028X   24155.14355380  .00000119  00000-0  17727-4 0  9995,2 55762  70.0007  49.6991 0002886 270.0572  90.0257 14.98333336 69984,6950.183,96.107,574.053,570.042,0.0
55762.0,STARLINK-5603,PAYLOAD,2024-06-03 22:40:19,14.9833219,0.0002743,70.0015,47.6782,266.4935,93.591,2.3262e-05,1.85e-06,0.0,0 STARLINK-5603,1 55762U 23028X   24155.94467362  .00000185  00000-0  23262-4 0  9991,2 55762  70.0015  47.6782 0002743 266.4935  93.5910 14.98332190 70100,6950.186,96.107,573.958,570.145,0.0
55762.0,STARLINK-5603,PAYLOAD,2024-06-04 03:28:43,14.98330358,0.0002619,70.0015,47.1735,265.7325,94.3535,8.9302e-05,9.73e-06,0.0,0 STARLINK-5603,1 55762U 23028X   24156.14495298  .00000973  00000-0  89302-4 0  9995,2 55762  70.0015  47.1735 0002619 265.7325  94.3535 14.98330358 70139,6950.192,96.107,573.877,570.237,0.0
